IRIDIUM 136             
1 42962U 17061H   23349.58827273  .00000239  00000+0  78274-4 0  9996
2 42962  86.3976  47.4644 0002220 102.2562 257.8882 14.34218026323747
